OBJECT_NAME,OBJECT_ID,EPOCH,MEAN_MOTION,ECCENTRICITY,INCLINATION,RA_OF_ASC_NODE,ARG_OF_PERICENTER,MEAN_ANOMALY,EPHEMERIS_TYPE,CLASSIFICATION_TYPE,NORAD_CAT_ID,ELEMENT_SET_NO,REV_AT_EPOCH,BSTAR,MEAN_MOTION_DOT,MEAN_MOTION_DDOT
CYGNUS NG-16,2021-072A,2021-10-01T06:11:45.728160,15.48887264,.0004287,51.6450,178.2593,46.8394,104.8068,0,U,49064,999,796,.10377E-3,.5249E-4,0
