CYGNUS NG-16            
1 49064U 21072A   21274.25816815  .00005249  00000-0  10377-3 0  9998
2 49064  51.6450 178.2593 0004287  46.8394 104.8068 15.48887264  7968
